{"type": "FeatureCollection", "features": [ {"type": "Feature", "properties": {"norad_id": 31058, "name": "FENGYUN 1C DEB", "group": "fengyun-1c-debris", "lat": 77.37366537534919, "lon": 158.51798343269073, "alt_km": 573.4298547895714, "timestamp": "2025-12-07T09:35:10.070688+00:00", "meta": {"OBJECT_NAME": "FENGYUN 1C DEB", "OBJECT_ID": "1999-025BFC", "EPOCH": "2025-11-30T14:27:22.580352", "MEAN_MOTION": 14.76018692, "ECCENTRICITY": 0.0094738, "INCLINATION": 99.5638, "RA_OF_ASC_NODE": 281.6638, "ARG_OF_PERICENTER": 143.0864, "MEAN_ANOMALY": 217.691, "EPHEMERIS_TYPE": 0, "CLASSIFICATION_TYPE": "U", "NORAD_CAT_ID": 31058, "ELEMENT_SET_NO": 999, "REV_AT_EPOCH": 99370, "BSTAR": 0.0011184, "MEAN_MOTION_DOT": 8.226e-05, "MEAN_MOTION_DDOT": 0}, "tle": {"line1": "1 31058U 99025BFC 25334.60234468  .00008226  00000+0  11184-2 0  9996", "line2": "2 31058  99.5638 281.6638 0094738 143.0864 217.6910 14.76018692993708"}}, "geometry": {"type": "Point", "coordinates": [158.51798343269073, 77.37366537534919]}}, {"type": "Feature", "properties": {"norad_id": 31062, "name": "FENGYUN 1C DEB", "group": "fengyun-1c-debris", "lat": 40.76873006796937, "lon": 156.23002362997832, "alt_km": 929.479654900495, "timestamp": "2025-12-07T09:35:10.070698+00:00", "meta": {"OBJECT_NAME": "FENGYUN 1C DEB", "OBJECT_ID": "1999-025BFG", "EPOCH": "2025-12-06T06:21:04.412160", "MEAN_MOTION": 13.7568626, "ECCENTRICITY": 0.01718345, "INCLINATION": 98.997, "RA_OF_ASC_NODE": 163.0095, "ARG_OF_PERICENTER": 335.1018, "MEAN_ANOMALY": 207.539, "EPHEMERIS_TYPE": 0, "CLASSIFICATION_TYPE": "U", "NORAD_CAT_ID": 31062, "ELEMENT_SET_NO": 999, "REV_AT_EPOCH": 94144, "BSTAR": 0.0004516502, "MEAN_MOTION_DOT": 4.44e-06, "MEAN_MOTION_DDOT": 0}, "tle": {"line1": "1 31062U 99025BFG 25340.26463440  .00000444  00000+0  45165-3 0  9995", "line2": "2 31062  98.9970 163.0095 0171834 335.1018 207.5390 13.75686260941447"}}, "geometry": {"type": "Point", "coordinates": [156.23002362997832, 40.76873006796937]}}, {"type": "Feature", "properties": {"norad_id": 31064, "name": "FENGYUN 1C DEB", "group": "fengyun-1c-debris", "lat": 20.606882422628424, "lon": -39.02453452827466, "alt_km": 644.3645830055248, "timestamp": "2025-12-07T09:35:10.070709+00:00", "meta": {"OBJECT_NAME": "FENGYUN 1C DEB", "OBJECT_ID": "1999-025BFJ", "EPOCH": "2025-12-06T17:28:03.669600", "MEAN_MOTION": 14.22114069, "ECCENTRICITY": 0.02419183, "INCLINATION": 98.5733, "RA_OF_ASC_NODE": 323.5736, "ARG_OF_PERICENTER": 19.0604, "MEAN_ANOMALY": 165.3233, "EPHEMERIS_TYPE": 0, "CLASSIFICATION_TYPE": "U", "NORAD_CAT_ID": 31064, "ELEMENT_SET_NO": 999, "REV_AT_EPOCH": 97169, "BSTAR": 0.00068715942, "MEAN_MOTION_DOT": 2.004e-05, "MEAN_MOTION_DDOT": 0}, "tle": {"line1": "1 31064U 99025BFJ 25340.72782025  .00002004  00000+0  68716-3 0  9992", "line2": "2 31064  98.5733 323.5736 0241918  19.0604 165.3233 14.22114069971690"}}, "geometry": {"type": "Point", "coordinates": [-39.02453452827466, 20.606882422628424]}}, {"type": "Feature", "properties": {"norad_id": 31065, "name": "FENGYUN 1C DEB", "group": "fengyun-1c-debris", "lat": -15.147715487199733, "lon": 178.35914604417783, "alt_km": 824.2489441580447, "timestamp": "2025-12-07T09:35:10.070719+00:00", "meta": {"OBJECT_NAME": "FENGYUN 1C DEB", "OBJECT_ID": "1999-025BFK", "EPOCH": "2025-12-06T07:27:19.187136", "MEAN_MOTION": 14.28133562, "ECCENTRICITY": 0.003548, "INCLINATION": 98.4659, "RA_OF_ASC_NODE": 359.6143, "ARG_OF_PERICENTER": 50.1744, "MEAN_ANOMALY": 310.2552, "EPHEMERIS_TYPE": 0, "CLASSIFICATION_TYPE": "U", "NORAD_CAT_ID": 31065, "ELEMENT_SET_NO": 999, "REV_AT_EPOCH": 64486, "BSTAR": 0.0016485265, "MEAN_MOTION_DOT": 4.087e-05, "MEAN_MOTION_DDOT": 0}, "tle": {"line1": "1 31065U 99025BFK 25340.31063874  .00004087  00000+0  16485-2 0  9990", "line2": "2 31065  98.4659 359.6143 0035480  50.1744 310.2552 14.28133562644861"}}, "geometry": {"type": "Point", "coordinates": [178.35914604417783, -15.147715487199733]}}, {"type": "Feature", "properties": {"norad_id": 31068, "name": "FENGYUN 1C DEB", "group": "fengyun-1c-debris", "lat": -59.528142536770595, "lon": 128.83826505932788, "alt_km": 903.0814383097995, "timestamp": "2025-12-07T09:35:10.070729+00:00", "meta": {"OBJECT_NAME": "FENGYUN 1C DEB", "OBJECT_ID": "1999-025BFN", "EPOCH": "2025-12-05T17:16:08.261184", "MEAN_MOTION": 14.09184379, "ECCENTRICITY": 0.01654718, "INCLINATION": 98.6281, "RA_OF_ASC_NODE": 322.1831, "ARG_OF_PERICENTER": 138.0623, "MEAN_ANOMALY": 223.3359, "EPHEMERIS_TYPE": 0, "CLASSIFICATION_TYPE": "U", "NORAD_CAT_ID": 31068, "ELEMENT_SET_NO": 999, "REV_AT_EPOCH": 96256, "BSTAR": 0.00021075295, "MEAN_MOTION_DOT": 3.75e-06, "MEAN_MOTION_DDOT": 0}, "tle": {"line1": "1 31068U 99025BFN 25339.71954006  .00000375  00000+0  21075-3 0  9999", "line2": "2 31068  98.6281 322.1831 0165471 138.0623 223.3359 14.09184379962562"}}, "geometry": {"type": "Point", "coordinates": [128.83826505932788, -59.528142536770595]}}, {"type": "Feature", "properties": {"norad_id": 31069, "name": "FENGYUN 1C DEB", "group": "fengyun-1c-debris", "lat": 30.302386231613053, "lon": 135.81907450819233, "alt_km": 666.4271396593495, "timestamp": "2025-12-07T09:35:10.070739+00:00", "meta": {"OBJECT_NAME": "FENGYUN 1C DEB", "OBJECT_ID": "1999-025BFP", "EPOCH": "2025-12-05T06:21:15.040224", "MEAN_MOTION": 14.57023128, "ECCENTRICITY": 0.01047413, "INCLINATION": 99.0992, "RA_OF_ASC_NODE": 138.8633, "ARG_OF_PERICENTER": 99.9446, "MEAN_ANOMALY": 261.359, "EPHEMERIS_TYPE": 0, "CLASSIFICATION_TYPE": "U", "NORAD_CAT_ID": 31069, "ELEMENT_SET_NO": 999, "REV_AT_EPOCH": 98577, "BSTAR": 0.001508615, "MEAN_MOTION_DOT": 7.262e-05, "MEAN_MOTION_DDOT": 0}, "tle": {"line1": "1 31069U 99025BFP 25339.26475741  .00007262  00000+0  15086-2 0  9990", "line2": "2 31069  99.0992 138.8633 0104741  99.9446 261.3590 14.57023128985774"}}, "geometry": {"type": "Point", "coordinates": [135.81907450819233, 30.302386231613053]}}, {"type": "Feature", "properties": {"norad_id": 31071, "name": "FENGYUN 1C DEB", "group": "fengyun-1c-debris", "lat": -33.57023504184097, "lon": -127.33460491506663, "alt_km": 719.6041139690215, "timestamp": "2025-12-07T09:35:10.070749+00:00", "meta": {"OBJECT_NAME": "FENGYUN 1C DEB", "OBJECT_ID": "1999-025BFR", "EPOCH": "2025-11-28T11:19:27.812352", "MEAN_MOTION": 14.52441146, "ECCENTRICITY": 0.00557097, "INCLINATION": 99.0422, "RA_OF_ASC_NODE": 49.1199, "ARG_OF_PERICENTER": 325.3377, "MEAN_ANOMALY": 34.419, "EPHEMERIS_TYPE": 0, "CLASSIFICATION_TYPE": "U", "NORAD_CAT_ID": 31071, "ELEMENT_SET_NO": 999, "REV_AT_EPOCH": 65287, "BSTAR": 0.0010703966, "MEAN_MOTION_DOT": 4.402e-05, "MEAN_MOTION_DDOT": 0}, "tle": {"line1": "1 31071U 99025BFR 25332.47184968  .00004402  00000+0  10704-2 0  9992", "line2": "2 31071  99.0422  49.1199 0055709 325.3377  34.4190 14.52441146652870"}}, "geometry": {"type": "Point", "coordinates": [-127.33460491506663, -33.57023504184097]}}, {"type": "Feature", "properties": {"norad_id": 31072, "name": "FENGYUN 1C DEB", "group": "fengyun-1c-debris", "lat": -58.39486189794731, "lon": 150.9387955847738, "alt_km": 902.29378047302, "timestamp": "2025-12-07T09:35:10.070759+00:00", "meta": {"OBJECT_NAME": "FENGYUN 1C DEB", "OBJECT_ID": "1999-025BFS", "EPOCH": "2025-12-05T22:47:33.054432", "MEAN_MOTION": 14.25450198, "ECCENTRICITY": 0.02105215, "INCLINATION": 99.3326, "RA_OF_ASC_NODE": 344.8966, "ARG_OF_PERICENTER": 117.0638, "MEAN_ANOMALY": 245.2192, "EPHEMERIS_TYPE": 0, "CLASSIFICATION_TYPE": "U", "NORAD_CAT_ID": 31072, "ELEMENT_SET_NO": 999, "REV_AT_EPOCH": 96546, "BSTAR": 0.00090205262, "MEAN_MOTION_DOT": 2.635e-05, "MEAN_MOTION_DDOT": 0}, "tle": {"line1": "1 31072U 99025BFS 25339.94968813  .00002635  00000+0  90205-3 0  9992", "line2": "2 31072  99.3326 344.8966 0210521 117.0638 245.2192 14.25450198965468"}}, "geometry": {"type": "Point", "coordinates": [150.9387955847738, -58.39486189794731]}}, {"type": "Feature", "properties": {"norad_id": 31073, "name": "FENGYUN 1C DEB", "group": "fengyun-1c-debris", "lat": -63.42844638506918, "lon": -8.129203541099784, "alt_km": 797.8484826802642, "timestamp": "2025-12-07T09:35:10.070770+00:00", "meta": {"OBJECT_NAME": "FENGYUN 1C DEB", "OBJECT_ID": "1999-025BFT", "EPOCH": "2025-12-03T01:37:19.680960", "MEAN_MOTION": 14.24707889, "ECCENTRICITY": 0.00458738, "INCLINATION": 99.2206, "RA_OF_ASC_NODE": 186.2773, "ARG_OF_PERICENTER": 313.0184, "MEAN_ANOMALY": 46.7154, "EPHEMERIS_TYPE": 0, "CLASSIFICATION_TYPE": "U", "NORAD_CAT_ID": 31073, "ELEMENT_SET_NO": 999, "REV_AT_EPOCH": 96945, "BSTAR": 0.0015631033, "MEAN_MOTION_DOT": 3.631e-05, "MEAN_MOTION_DDOT": 0}, "tle": {"line1": "1 31073U 99025BFT 25337.06758890  .00003631  00000+0  15631-2 0  9992", "line2": "2 31073  99.2206 186.2773 0045873 313.0184  46.7154 14.24707889969455"}}, "geometry": {"type": "Point", "coordinates": [-8.129203541099784, -63.42844638506918]}}, {"type": "Feature", "properties": {"norad_id": 31074, "name": "FENGYUN 1C DEB", "group": "fengyun-1c-debris", "lat": 19.05972979737303, "lon": -106.74461461670074, "alt_km": 854.7943831202847, "timestamp": "2025-12-07T09:35:10.070780+00:00", "meta": {"OBJECT_NAME": "FENGYUN 1C DEB", "OBJECT_ID": "1999-025BFU", "EPOCH": "2025-12-02T05:31:54.784416", "MEAN_MOTION": 14.14072118, "ECCENTRICITY": 0.0089961, "INCLINATION": 98.9589, "RA_OF_ASC_NODE": 251.1985, "ARG_OF_PERICENTER": 295.203, "MEAN_ANOMALY": 63.9836, "EPHEMERIS_TYPE": 0, "CLASSIFICATION_TYPE": "U", "NORAD_CAT_ID": 31074, "ELEMENT_SET_NO": 999, "REV_AT_EPOCH": 95431, "BSTAR": 0.0031299, "MEAN_MOTION_DOT": 6.148e-05, "MEAN_MOTION_DDOT": 0}, "tle": {"line1": "1 31074U 99025BFU 25336.23049519  .00006148  00000+0  31299-2 0  9996", "line2": "2 31074  98.9589 251.1985 0089961 295.2030  63.9836 14.14072118954316"}}, "geometry": {"type": "Point", "coordinates": [-106.74461461670074, 19.05972979737303]}}]}